{"type": "FeatureCollection", "features": [ {"type": "Feature", "properties": {"norad_id": 57401, "name": "TIANMU-1 09", "group": "weather", "lat": -14.595011191989347, "lon": 44.851422051407006, "alt_km": 485.15807929877246, "timestamp": "2025-12-19T22:41:52.021899+00:00", "meta": {"OBJECT_NAME": "TIANMU-1 09", "OBJECT_ID": "2023-101C", "EPOCH": "2025-12-19T18:02:50.932896", "MEAN_MOTION": 15.28181106, "ECCENTRICITY": 0.0006548, "INCLINATION": 97.2814, "RA_OF_ASC_NODE": 42.7541, "ARG_OF_PERICENTER": 64.9375, "MEAN_ANOMALY": 295.2544, "EPHEMERIS_TYPE": 0, "CLASSIFICATION_TYPE": "U", "NORAD_CAT_ID": 57401, "ELEMENT_SET_NO": 999, "REV_AT_EPOCH": 13422, "BSTAR": 0.00020057, "MEAN_MOTION_DOT": 5.439e-05, "MEAN_MOTION_DDOT": 0}, "tle": {"line1": "1 57401U 23101C   25353.75197839  .00005439  00000+0  20057-3 0  9998", "line2": "2 57401  97.2814  42.7541 0006548  64.9375 295.2544 15.28181106134226"}}, "geometry": {"type": "Point", "coordinates": [44.851422051407006, -14.595011191989347]}}, {"type": "Feature", "properties": {"norad_id": 57402, "name": "TIANMU-1 10", "group": "weather", "lat": 22.416038864650766, "lon": -133.17240313935386, "alt_km": 481.5280769066394, "timestamp": "2025-12-19T22:41:52.021915+00:00", "meta": {"OBJECT_NAME": "TIANMU-1 10", "OBJECT_ID": "2023-101D", "EPOCH": "2025-12-19T17:17:52.702368", "MEAN_MOTION": 15.2817217, "ECCENTRICITY": 0.0008268, "INCLINATION": 97.2895, "RA_OF_ASC_NODE": 43.5807, "ARG_OF_PERICENTER": 63.2552, "MEAN_ANOMALY": 296.9533, "EPHEMERIS_TYPE": 0, "CLASSIFICATION_TYPE": "U", "NORAD_CAT_ID": 57402, "ELEMENT_SET_NO": 999, "REV_AT_EPOCH": 13421, "BSTAR": 0.00018892, "MEAN_MOTION_DOT": 5.119e-05, "MEAN_MOTION_DDOT": 0}, "tle": {"line1": "1 57402U 23101D   25353.72074887  .00005119  00000+0  18892-3 0  9992", "line2": "2 57402  97.2895  43.5807 0008268  63.2552 296.9533 15.28172170134216"}}, "geometry": {"type": "Point", "coordinates": [-133.17240313935386, 22.416038864650766]}}, {"type": "Feature", "properties": {"norad_id": 57490, "name": "FENGYUN 3F", "group": "weather", "lat": 45.38124521683611, "lon": -108.94287096869618, "alt_km": 821.2506642125754, "timestamp": "2025-12-19T22:41:52.021932+00:00", "meta": {"OBJECT_NAME": "FENGYUN 3F", "OBJECT_ID": "2023-111A", "EPOCH": "2025-12-19T18:41:13.541280", "MEAN_MOTION": 14.19895289, "ECCENTRICITY": 7.44e-05, "INCLINATION": 98.7075, "RA_OF_ASC_NODE": 61.9582, "ARG_OF_PERICENTER": 113.0433, "MEAN_ANOMALY": 247.0822, "EPHEMERIS_TYPE": 0, "CLASSIFICATION_TYPE": "U", "NORAD_CAT_ID": 57490, "ELEMENT_SET_NO": 999, "REV_AT_EPOCH": 12340, "BSTAR": 4.7031e-05, "MEAN_MOTION_DOT": 5.6e-07, "MEAN_MOTION_DDOT": 0}, "tle": {"line1": "1 57490U 23111A   25353.77862895  .00000056  00000+0  47031-4 0  9992", "line2": "2 57490  98.7075  61.9582 0000744 113.0433 247.0822 14.19895289123405"}}, "geometry": {"type": "Point", "coordinates": [-108.94287096869618, 45.38124521683611]}}, {"type": "Feature", "properties": {"norad_id": 58584, "name": "ARKTIKA-M 2", "group": "weather", "lat": 57.83978086112294, "lon": -132.43737410336783, "alt_km": 34679.44491873254, "timestamp": "2025-12-19T22:41:52.021951+00:00", "meta": {"OBJECT_NAME": "ARKTIKA-M 2", "OBJECT_ID": "2023-198A", "EPOCH": "2025-12-18T19:26:38.867712", "MEAN_MOTION": 2.00602974, "ECCENTRICITY": 0.68653183, "INCLINATION": 63.225, "RA_OF_ASC_NODE": 174.2298, "ARG_OF_PERICENTER": 268.0801, "MEAN_ANOMALY": 18.8403, "EPHEMERIS_TYPE": 0, "CLASSIFICATION_TYPE": "U", "NORAD_CAT_ID": 58584, "ELEMENT_SET_NO": 999, "REV_AT_EPOCH": 1470, "BSTAR": 0, "MEAN_MOTION_DOT": 2e-06, "MEAN_MOTION_DDOT": 0}, "tle": {"line1": "1 58584U 23198A   25352.81017208  .00000200  00000+0  00000+0 0  9997", "line2": "2 58584  63.2250 174.2298 6865318 268.0801  18.8403  2.00602974 14701"}}, "geometry": {"type": "Point", "coordinates": [-132.43737410336783, 57.83978086112294]}}, {"type": "Feature", "properties": {"norad_id": 58645, "name": "TIANMU-1 11", "group": "weather", "lat": -65.029142249256, "lon": 177.32872551809265, "alt_km": 494.6867283141355, "timestamp": "2025-12-19T22:41:52.021971+00:00", "meta": {"OBJECT_NAME": "TIANMU-1 11", "OBJECT_ID": "2023-205A", "EPOCH": "2025-12-19T18:28:16.001760", "MEAN_MOTION": 15.24679854, "ECCENTRICITY": 0.0007567, "INCLINATION": 97.3596, "RA_OF_ASC_NODE": 13.2696, "ARG_OF_PERICENTER": 280.7042, "MEAN_ANOMALY": 79.3343, "EPHEMERIS_TYPE": 0, "CLASSIFICATION_TYPE": "U", "NORAD_CAT_ID": 58645, "ELEMENT_SET_NO": 999, "REV_AT_EPOCH": 11016, "BSTAR": 0.00017828, "MEAN_MOTION_DOT": 4.338e-05, "MEAN_MOTION_DDOT": 0}, "tle": {"line1": "1 58645U 23205A   25353.76962965  .00004338  00000+0  17828-3 0  9994", "line2": "2 58645  97.3596  13.2696 0007567 280.7042  79.3343 15.24679854110163"}}, "geometry": {"type": "Point", "coordinates": [177.32872551809265, -65.029142249256]}}, {"type": "Feature", "properties": {"norad_id": 58646, "name": "TIANMU-1 12", "group": "weather", "lat": 80.95992041342377, "lon": -112.43961673895609, "alt_km": 488.48092830716814, "timestamp": "2025-12-19T22:41:52.022009+00:00", "meta": {"OBJECT_NAME": "TIANMU-1 12", "OBJECT_ID": "2023-205B", "EPOCH": "2025-12-19T19:07:50.598624", "MEAN_MOTION": 15.24564904, "ECCENTRICITY": 0.0005782, "INCLINATION": 97.3583, "RA_OF_ASC_NODE": 13.0996, "ARG_OF_PERICENTER": 259.0396, "MEAN_ANOMALY": 101.0191, "EPHEMERIS_TYPE": 0, "CLASSIFICATION_TYPE": "U", "NORAD_CAT_ID": 58646, "ELEMENT_SET_NO": 999, "REV_AT_EPOCH": 11015, "BSTAR": 0.00018918, "MEAN_MOTION_DOT": 4.59e-05, "MEAN_MOTION_DDOT": 0}, "tle": {"line1": "1 58646U 23205B   25353.79711341  .00004590  00000+0  18918-3 0  9999", "line2": "2 58646  97.3583  13.0996 0005782 259.0396 101.0191 15.24564904110151"}}, "geometry": {"type": "Point", "coordinates": [-112.43961673895609, 80.95992041342377]}}, {"type": "Feature", "properties": {"norad_id": 58647, "name": "TIANMU-1 13", "group": "weather", "lat": -82.24915980884117, "lon": 85.22213249157599, "alt_km": 495.9174368491367, "timestamp": "2025-12-19T22:41:52.022027+00:00", "meta": {"OBJECT_NAME": "TIANMU-1 13", "OBJECT_ID": "2023-205C", "EPOCH": "2025-12-19T18:21:21.206592", "MEAN_MOTION": 15.24607764, "ECCENTRICITY": 0.0006242, "INCLINATION": 97.3612, "RA_OF_ASC_NODE": 13.2719, "ARG_OF_PERICENTER": 235.7682, "MEAN_ANOMALY": 124.2965, "EPHEMERIS_TYPE": 0, "CLASSIFICATION_TYPE": "U", "NORAD_CAT_ID": 58647, "ELEMENT_SET_NO": 999, "REV_AT_EPOCH": 11014, "BSTAR": 0.00018559, "MEAN_MOTION_DOT": 4.508e-05, "MEAN_MOTION_DDOT": 0}, "tle": {"line1": "1 58647U 23205C   25353.76482878  .00004508  00000+0  18559-3 0  9997", "line2": "2 58647  97.3612  13.2719 0006242 235.7682 124.2965 15.24607764110148"}}, "geometry": {"type": "Point", "coordinates": [85.22213249157599, -82.24915980884117]}}, {"type": "Feature", "properties": {"norad_id": 58648, "name": "TIANMU-1 14", "group": "weather", "lat": 2.9108390920570284, "lon": 12.415434152390242, "alt_km": 497.25395219865914, "timestamp": "2025-12-19T22:41:52.022044+00:00", "meta": {"OBJECT_NAME": "TIANMU-1 14", "OBJECT_ID": "2023-205D", "EPOCH": "2025-12-19T17:57:33.564096", "MEAN_MOTION": 15.2459086, "ECCENTRICITY": 0.0006976, "INCLINATION": 97.3544, "RA_OF_ASC_NODE": 12.5979, "ARG_OF_PERICENTER": 241.7889, "MEAN_ANOMALY": 118.2645, "EPHEMERIS_TYPE": 0, "CLASSIFICATION_TYPE": "U", "NORAD_CAT_ID": 58648, "ELEMENT_SET_NO": 999, "REV_AT_EPOCH": 11014, "BSTAR": 0.00018855, "MEAN_MOTION_DOT": 4.579e-05, "MEAN_MOTION_DDOT": 0}, "tle": {"line1": "1 58648U 23205D   25353.74830514  .00004579  00000+0  18855-3 0  9997", "line2": "2 58648  97.3544  12.5979 0006976 241.7889 118.2645 15.24590860110149"}}, "geometry": {"type": "Point", "coordinates": [12.415434152390242, 2.9108390920570284]}}, {"type": "Feature", "properties": {"norad_id": 58660, "name": "TIANMU-1 19", "group": "weather", "lat": -14.905587964451454, "lon": 106.9624444195392, "alt_km": 488.3709250821139, "timestamp": "2025-12-19T22:41:52.022060+00:00", "meta": {"OBJECT_NAME": "TIANMU-1 19", "OBJECT_ID": "2023-208A", "EPOCH": "2025-12-19T18:02:53.905920", "MEAN_MOTION": 15.27970659, "ECCENTRICITY": 0.0004426, "INCLINATION": 97.4395, "RA_OF_ASC_NODE": 104.7758, "ARG_OF_PERICENTER": 222.0251, "MEAN_ANOMALY": 138.065, "EPHEMERIS_TYPE": 0, "CLASSIFICATION_TYPE": "U", "NORAD_CAT_ID": 58660, "ELEMENT_SET_NO": 999, "REV_AT_EPOCH": 10989, "BSTAR": 0.00023988, "MEAN_MOTION_DOT": 6.473e-05, "MEAN_MOTION_DDOT": 0}, "tle": {"line1": "1 58660U 23208A   25353.75201280  .00006473  00000+0  23988-3 0  9995", "line2": "2 58660  97.4395 104.7758 0004426 222.0251 138.0650 15.27970659109897"}}, "geometry": {"type": "Point", "coordinates": [106.9624444195392, -14.905587964451454]}}, {"type": "Feature", "properties": {"norad_id": 58661, "name": "TIANMU-1 20", "group": "weather", "lat": 82.56120762556357, "lon": 14.88665127471925, "alt_km": 474.5253547487828, "timestamp": "2025-12-19T22:41:52.022077+00:00", "meta": {"OBJECT_NAME": "TIANMU-1 20", "OBJECT_ID": "2023-208B", "EPOCH": "2025-12-19T17:35:36.415968", "MEAN_MOTION": 15.29160846, "ECCENTRICITY": 0.0006521, "INCLINATION": 97.4333, "RA_OF_ASC_NODE": 105.2114, "ARG_OF_PERICENTER": 236.3075, "MEAN_ANOMALY": 123.7543, "EPHEMERIS_TYPE": 0, "CLASSIFICATION_TYPE": "U", "NORAD_CAT_ID": 58661, "ELEMENT_SET_NO": 999, "REV_AT_EPOCH": 10996, "BSTAR": 0.00024711, "MEAN_MOTION_DOT": 6.921e-05, "MEAN_MOTION_DDOT": 0}, "tle": {"line1": "1 58661U 23208B   25353.73306037  .00006921  00000+0  24711-3 0  9993", "line2": "2 58661  97.4333 105.2114 0006521 236.3075 123.7543 15.29160846109963"}}, "geometry": {"type": "Point", "coordinates": [14.88665127471925, 82.56120762556357]}}]}